{"type": "FeatureCollection", "features": [ {"type": "Feature", "properties": {"norad_id": 38779, "name": "GSAT-10 (GAGAN/PRN 128)", "group": "gnss", "lat": -0.037924389008187225, "lon": -131.6096435853481, "alt_km": 35787.02944291639, "timestamp": "2025-12-03T04:52:29.879873+00:00", "meta": {"OBJECT_NAME": "GSAT-10 (GAGAN/PRN 128)", "OBJECT_ID": "2012-051B", "EPOCH": "2025-12-02T20:24:12.045024", "MEAN_MOTION": 1.00269196, "ECCENTRICITY": 0.0002512, "INCLINATION": 0.0337, "RA_OF_ASC_NODE": 262.3747, "ARG_OF_PERICENTER": 235.0811, "MEAN_ANOMALY": 323.5134, "EPHEMERIS_TYPE": 0, "CLASSIFICATION_TYPE": "U", "NORAD_CAT_ID": 38779, "ELEMENT_SET_NO": 999, "REV_AT_EPOCH": 4813, "BSTAR": 0, "MEAN_MOTION_DOT": -1.44e-06, "MEAN_MOTION_DDOT": 0}, "tle": {"line1": "1 38779U 12051B   25336.85013941 -.00000144  00000+0  00000+0 0  9991", "line2": "2 38779   0.0337 262.3747 0002512 235.0811 323.5134  1.00269196 48131"}}, "geometry": {"type": "Point", "coordinates": [-131.6096435853481, -0.037924389008187225]}}, {"type": "Feature", "properties": {"norad_id": 38833, "name": "GPS BIIF-3  (PRN 24)", "group": "gnss", "lat": -41.58061511347795, "lon": 12.613432824272472, "alt_km": 20648.133636165036, "timestamp": "2025-12-03T04:52:29.879885+00:00", "meta": {"OBJECT_NAME": "GPS BIIF-3  (PRN 24)", "OBJECT_ID": "2012-053A", "EPOCH": "2025-12-01T21:10:58.228896", "MEAN_MOTION": 2.00564835, "ECCENTRICITY": 0.01754817, "INCLINATION": 53.5559, "RA_OF_ASC_NODE": 151.6834, "ARG_OF_PERICENTER": 63.8436, "MEAN_ANOMALY": 297.9871, "EPHEMERIS_TYPE": 0, "CLASSIFICATION_TYPE": "U", "NORAD_CAT_ID": 38833, "ELEMENT_SET_NO": 999, "REV_AT_EPOCH": 9548, "BSTAR": 0, "MEAN_MOTION_DOT": 1.16e-06, "MEAN_MOTION_DDOT": 0}, "tle": {"line1": "1 38833U 12053A   25335.88261839  .00000116  00000+0  00000+0 0  9995", "line2": "2 38833  53.5559 151.6834 0175481  63.8436 297.9871  2.00564835 95485"}}, "geometry": {"type": "Point", "coordinates": [12.613432824272472, -41.58061511347795]}}, {"type": "Feature", "properties": {"norad_id": 38857, "name": "GSAT0103 (GALILEO-FM3)", "group": "gnss", "lat": 29.294018983985058, "lon": -95.61257115125083, "alt_km": 23222.469725596395, "timestamp": "2025-12-03T04:52:29.879896+00:00", "meta": {"OBJECT_NAME": "GSAT0103 (GALILEO-FM3)", "OBJECT_ID": "2012-055A", "EPOCH": "2025-12-01T05:01:21.613152", "MEAN_MOTION": 1.70473256, "ECCENTRICITY": 0.00023005, "INCLINATION": 55.6823, "RA_OF_ASC_NODE": 106.9832, "ARG_OF_PERICENTER": 267.1494, "MEAN_ANOMALY": 92.7944, "EPHEMERIS_TYPE": 0, "CLASSIFICATION_TYPE": "U", "NORAD_CAT_ID": 38857, "ELEMENT_SET_NO": 999, "REV_AT_EPOCH": 8163, "BSTAR": 0, "MEAN_MOTION_DOT": 4.2e-07, "MEAN_MOTION_DDOT": 0}, "tle": {"line1": "1 38857U 12055A   25335.20927793  .00000042  00000+0  00000+0 0  9995", "line2": "2 38857  55.6823 106.9832 0002300 267.1494  92.7944  1.70473256 81637"}}, "geometry": {"type": "Point", "coordinates": [-95.61257115125083, 29.294018983985058]}}, {"type": "Feature", "properties": {"norad_id": 38953, "name": "BEIDOU-2 G6 (C02)", "group": "gnss", "lat": 1.70529163129299, "lon": -130.55262143003134, "alt_km": 35808.54049807691, "timestamp": "2025-12-03T04:52:29.879910+00:00", "meta": {"OBJECT_NAME": "BEIDOU-2 G6 (C02)", "OBJECT_ID": "2012-059A", "EPOCH": "2025-12-02T20:24:49.178880", "MEAN_MOTION": 1.00270808, "ECCENTRICITY": 0.0007304, "INCLINATION": 3.922, "RA_OF_ASC_NODE": 75.5993, "ARG_OF_PERICENTER": 290.3343, "MEAN_ANOMALY": 96.2715, "EPHEMERIS_TYPE": 0, "CLASSIFICATION_TYPE": "U", "NORAD_CAT_ID": 38953, "ELEMENT_SET_NO": 999, "REV_AT_EPOCH": 4794, "BSTAR": 0, "MEAN_MOTION_DOT": -1.57e-06, "MEAN_MOTION_DDOT": 0}, "tle": {"line1": "1 38953U 12059A   25336.85056920 -.00000157  00000+0  00000+0 0  9991", "line2": "2 38953   3.9220  75.5993 0007304 290.3343  96.2715  1.00270808 47942"}}, "geometry": {"type": "Point", "coordinates": [-130.55262143003134, 1.70529163129299]}}, {"type": "Feature", "properties": {"norad_id": 38977, "name": "LUCH 5B (SDCM/PRN 125)", "group": "gnss", "lat": 9.815401256530283, "lon": 128.7545031881155, "alt_km": 35797.449508571844, "timestamp": "2025-12-03T04:52:29.879922+00:00", "meta": {"OBJECT_NAME": "LUCH 5B (SDCM/PRN 125)", "OBJECT_ID": "2012-061A", "EPOCH": "2025-12-02T00:00:34.725024", "MEAN_MOTION": 1.00269053, "ECCENTRICITY": 0.00075983, "INCLINATION": 10.0566, "RA_OF_ASC_NODE": 51.8026, "ARG_OF_PERICENTER": 188.6335, "MEAN_ANOMALY": 174.4538, "EPHEMERIS_TYPE": 0, "CLASSIFICATION_TYPE": "U", "NORAD_CAT_ID": 38977, "ELEMENT_SET_NO": 999, "REV_AT_EPOCH": 4763, "BSTAR": 0, "MEAN_MOTION_DOT": -1.23e-06, "MEAN_MOTION_DDOT": 0}, "tle": {"line1": "1 38977U 12061A   25336.00040191 -.00000123  00000+0  00000+0 0  9993", "line2": "2 38977  10.0566  51.8026 0007598 188.6335 174.4538  1.00269053 47637"}}, "geometry": {"type": "Point", "coordinates": [128.7545031881155, 9.815401256530283]}}, {"type": "Feature", "properties": {"norad_id": 39155, "name": "COSMOS 2485 (747)", "group": "gnss", "lat": -17.958059676384746, "lon": 71.62457409900549, "alt_km": 19155.144686339034, "timestamp": "2025-12-03T04:52:29.879934+00:00", "meta": {"OBJECT_NAME": "COSMOS 2485 (747)", "OBJECT_ID": "2013-019A", "EPOCH": "2025-12-02T06:58:21.505152", "MEAN_MOTION": 2.13102877, "ECCENTRICITY": 0.0024568, "INCLINATION": 65.3079, "RA_OF_ASC_NODE": 80.2187, "ARG_OF_PERICENTER": 229.0905, "MEAN_ANOMALY": 130.6936, "EPHEMERIS_TYPE": 0, "CLASSIFICATION_TYPE": "U", "NORAD_CAT_ID": 39155, "ELEMENT_SET_NO": 999, "REV_AT_EPOCH": 9808, "BSTAR": 0, "MEAN_MOTION_DOT": -1.8e-07, "MEAN_MOTION_DDOT": 0}, "tle": {"line1": "1 39155U 13019A   25336.29052668 -.00000018  00000+0  00000+0 0  9992", "line2": "2 39155  65.3079  80.2187 0024568 229.0905 130.6936  2.13102877 98087"}}, "geometry": {"type": "Point", "coordinates": [71.62457409900549, -17.958059676384746]}}, {"type": "Feature", "properties": {"norad_id": 39166, "name": "GPS BIIF-4  (PRN 27)", "group": "gnss", "lat": -22.97132344387707, "lon": -100.54671773513292, "alt_km": 20099.09920547367, "timestamp": "2025-12-03T04:52:29.879945+00:00", "meta": {"OBJECT_NAME": "GPS BIIF-4  (PRN 27)", "OBJECT_ID": "2013-023A", "EPOCH": "2025-12-01T17:54:55.988640", "MEAN_MOTION": 2.00565053, "ECCENTRICITY": 0.0137237, "INCLINATION": 54.6617, "RA_OF_ASC_NODE": 277.0152, "ARG_OF_PERICENTER": 48.4926, "MEAN_ANOMALY": 312.6731, "EPHEMERIS_TYPE": 0, "CLASSIFICATION_TYPE": "U", "NORAD_CAT_ID": 39166, "ELEMENT_SET_NO": 999, "REV_AT_EPOCH": 9192, "BSTAR": 0, "MEAN_MOTION_DOT": -4e-07, "MEAN_MOTION_DDOT": 0}, "tle": {"line1": "1 39166U 13023A   25335.74648135 -.00000040  00000+0  00000+0 0  9993", "line2": "2 39166  54.6617 277.0152 0137237  48.4926 312.6731  2.00565053 91926"}}, "geometry": {"type": "Point", "coordinates": [-100.54671773513292, -22.97132344387707]}}, {"type": "Feature", "properties": {"norad_id": 39199, "name": "IRNSS-1A", "group": "gnss", "lat": 24.67842788899428, "lon": -153.774447875861, "alt_km": 35724.12521664875, "timestamp": "2025-12-03T04:52:29.879956+00:00", "meta": {"OBJECT_NAME": "IRNSS-1A", "OBJECT_ID": "2013-034A", "EPOCH": "2025-12-02T19:49:26.431104", "MEAN_MOTION": 1.00279053, "ECCENTRICITY": 0.0021661, "INCLINATION": 35.2852, "RA_OF_ASC_NODE": 66.6964, "ARG_OF_PERICENTER": 185.4058, "MEAN_ANOMALY": 172.3398, "EPHEMERIS_TYPE": 0, "CLASSIFICATION_TYPE": "U", "NORAD_CAT_ID": 39199, "ELEMENT_SET_NO": 999, "REV_AT_EPOCH": 4539, "BSTAR": 0, "MEAN_MOTION_DOT": 6.5e-07, "MEAN_MOTION_DDOT": 0}, "tle": {"line1": "1 39199U 13034A   25336.82600036  .00000065  00000+0  00000+0 0  9995", "line2": "2 39199  35.2852  66.6964 0021661 185.4058 172.3398  1.00279053 45393"}}, "geometry": {"type": "Point", "coordinates": [-153.774447875861, 24.67842788899428]}}, {"type": "Feature", "properties": {"norad_id": 39533, "name": "GPS BIIF-5  (PRN 30)", "group": "gnss", "lat": -19.179305692322387, "lon": 142.44813676828096, "alt_km": 20252.413591053497, "timestamp": "2025-12-03T04:52:29.879967+00:00", "meta": {"OBJECT_NAME": "GPS BIIF-5  (PRN 30)", "OBJECT_ID": "2014-008A", "EPOCH": "2025-12-01T17:47:12.744672", "MEAN_MOTION": 2.00573724, "ECCENTRICITY": 0.00789385, "INCLINATION": 53.6295, "RA_OF_ASC_NODE": 157.3734, "ARG_OF_PERICENTER": 226.3523, "MEAN_ANOMALY": 133.0366, "EPHEMERIS_TYPE": 0, "CLASSIFICATION_TYPE": "U", "NORAD_CAT_ID": 39533, "ELEMENT_SET_NO": 999, "REV_AT_EPOCH": 8572, "BSTAR": 0, "MEAN_MOTION_DOT": 1.22e-06, "MEAN_MOTION_DDOT": 0}, "tle": {"line1": "1 39533U 14008A   25335.74111973  .00000122  00000+0  00000+0 0  9990", "line2": "2 39533  53.6295 157.3734 0078938 226.3523 133.0366  2.00573724 85727"}}, "geometry": {"type": "Point", "coordinates": [142.44813676828096, -19.179305692322387]}}, {"type": "Feature", "properties": {"norad_id": 39617, "name": "ASTRA 5B (EGNOS/PRN 123)", "group": "gnss", "lat": 0.06036149052322379, "lon": 168.8748029003501, "alt_km": 35787.63202371873, "timestamp": "2025-12-03T04:52:29.879978+00:00", "meta": {"OBJECT_NAME": "ASTRA 5B (EGNOS/PRN 123)", "OBJECT_ID": "2014-011B", "EPOCH": "2025-12-02T17:19:16.087008", "MEAN_MOTION": 1.00273545, "ECCENTRICITY": 0.0004808, "INCLINATION": 0.0845, "RA_OF_ASC_NODE": 55.373, "ARG_OF_PERICENTER": 209.6322, "MEAN_ANOMALY": 90.1655, "EPHEMERIS_TYPE": 0, "CLASSIFICATION_TYPE": "U", "NORAD_CAT_ID": 39617, "ELEMENT_SET_NO": 999, "REV_AT_EPOCH": 4269, "BSTAR": 0, "MEAN_MOTION_DOT": 1.57e-06, "MEAN_MOTION_DDOT": 0}, "tle": {"line1": "1 39617U 14011B   25336.72171397  .00000157  00000+0  00000+0 0  9990", "line2": "2 39617   0.0845  55.3730 0004808 209.6322  90.1655  1.00273545 42696"}}, "geometry": {"type": "Point", "coordinates": [168.8748029003501, 0.06036149052322379]}}]}